[{"OBJECT_NAME":"TEVEL2-3","OBJECT_ID":"2025-052J","EPOCH":"2026-03-09T15:29:22.754400","MEAN_MOTION":15.30377031,"ECCENTRICITY":0.0004761,"INCLINATION":97.3994,"RA_OF_ASC_NODE":324.7775,"ARG_OF_PERICENTER":105.7353,"MEAN_ANOMALY":254.4413,"EPHEMERIS_TYPE":0,"CLASSIFICATION_TYPE":"U","NORAD_CAT_ID":63218,"ELEMENT_SET_NO":999,"REV_AT_EPOCH":5485,"BSTAR":0.00069446,"MEAN_MOTION_DOT":0.00020365,"MEAN_MOTION_DDOT":0},{"OBJECT_NAME":"STARLINK-34259","OBJECT_ID":"2025-190T","EPOCH":"2026-03-09T13:25:31.029024","MEAN_MOTION":15.30187783,"ECCENTRICITY":0.0001178,"INCLINATION":53.1573,"RA_OF_ASC_NODE":168.8942,"ARG_OF_PERICENTER":78.0466,"MEAN_ANOMALY":282.0667,"EPHEMERIS_TYPE":0,"CLASSIFICATION_TYPE":"U","NORAD_CAT_ID":65368,"ELEMENT_SET_NO":999,"REV_AT_EPOCH":2973,"BSTAR":0.00090949,"MEAN_MOTION_DOT":0.00026664,"MEAN_MOTION_DDOT":0}]
